STARLINK-2478
1 28135C 21027AV  21325.14742193  .00002912  00000-0  19506-3 0  3258
2 28135  53.0563  22.5675 0001436  56.6780  84.6415 15.06408065    12
